start=new Date('2023-05-04T00:00:00.000Z').valueOf();
sats=[{"PERIAPSIS":"546.225","TLE_LINE2":"2 47989  53.0536 239.5709 0001269  87.6319 272.4815 15.06435656118873","NORAD_CAT_ID":"47989","INCLINATION":"53.0536","ECCENTRICITY":"0.00012690","FILE":"3900281","GP_ID":"231198145","PERIOD":"95.590","MEAN_MOTION_DDOT":"0.0000000000000","DECAY_DATE":null,"EPOCH":"2023-05-03T18:04:46.155936","CLASSIFICATION_TYPE":"U","SITE":"AFETR","RCS_SIZE":"LARGE","EPHEMERIS_TYPE":"0","MEAN_ANOMALY":"272.4815","COUNTRY_CODE":"US","TIME_SYSTEM":"UTC","SEMIMAJOR_AXIS":"6925.239","LAUNCH_DATE":"2021-03-24","REF_FRAME":"TEME","TLE_LINE1":"1 47989U 21024N   23123.75331199  .00013824  00000-0  94423-3 0  9998","ARG_OF_PERICENTER":"87.6319","CENTER_NAME":"EARTH","MEAN_MOTION":"15.06435656","BSTAR":"0.00094423000000","OBJECT_NAME":"STARLINK-2305","OBJECT_ID":"2021-024N","APOAPSIS":"547.983","ELEMENT_SET_NO":"999","REV_AT_EPOCH":"11887","RA_OF_ASC_NODE":"239.5709","MEAN_ELEMENT_THEORY":"SGP4","MEAN_MOTION_DOT":"0.00013824","OBJECT_TYPE":"PAYLOAD"},{"OBJECT_NAME":"STARLINK-2307","OBJECT_ID":"2021-024P","CENTER_NAME":"EARTH","MEAN_MOTION":"15.06424970","BSTAR":"0.00123860000000","OBJECT_TYPE":"PAYLOAD","MEAN_ELEMENT_THEORY":"SGP4","RA_OF_ASC_NODE":"239.7777","REV_AT_EPOCH":"11885","MEAN_MOTION_DOT":"0.00018228","ELEMENT_SET_NO":"999","APOAPSIS":"547.987","GP_ID":"231196396","FILE":"3900281","PERIOD":"95.591","MEAN_MOTION_DDOT":"0.0000000000000","DECAY_DATE":null,"CLASSIFICATION_TYPE":"U","EPOCH":"2023-05-03T16:55:46.680960","RCS_SIZE":"LARGE","SITE":"AFETR","NORAD_CAT_ID":"47990","INCLINATION":"53.0531","ECCENTRICITY":"0.00012270","TLE_LINE2":"2 47990  53.0531 239.7777 0001227  96.5084 263.6044 15.06424970118850","PERIAPSIS":"546.287","REF_FRAME":"TEME","TLE_LINE1":"1 47990U 21024P   23123.70540140  .00018228  00000-0  12386-2 0  9993","ARG_OF_PERICENTER":"96.5084","SEMIMAJOR_AXIS":"6925.272","LAUNCH_DATE":"2021-03-24","TIME_SYSTEM":"UTC","EPHEMERIS_TYPE":"0","MEAN_ANOMALY":"263.6044","COUNTRY_CODE":"US"},{"ARG_OF_PERICENTER":"74.0957","TLE_LINE1":"1 47991U 21024Q   23123.65060855  .00018132  00000-0  12331-2 0  9992","REF_FRAME":"TEME","LAUNCH_DATE":"2021-03-24","SEMIMAJOR_AXIS":"6925.355","TIME_SYSTEM":"UTC","COUNTRY_CODE":"US","EPHEMERIS_TYPE":"0","MEAN_ANOMALY":"286.0124","RCS_SIZE":"LARGE","SITE":"AFETR","DECAY_DATE":null,"CLASSIFICATION_TYPE":"U","EPOCH":"2023-05-03T15:36:52.578720","MEAN_MOTION_DDOT":"0.0000000000000","GP_ID":"231196646","PERIOD":"95.592","FILE":"3900281","ECCENTRICITY":"0.00008350","INCLINATION":"53.0531","NORAD_CAT_ID":"47991","TLE_LINE2":"2 47991  53.0531 255.0310 0000835  74.0957 286.0124 15.06397884118692","PERIAPSIS":"546.642","OBJECT_TYPE":"PAYLOAD","MEAN_MOTION_DOT":"0.00018132","REV_AT_EPOCH":"11869","RA_OF_ASC_NODE":"255.0310","MEAN_ELEMENT_THEORY":"SGP4","ELEMENT_SET_NO":"999","APOAPSIS":"547.798","OBJECT_ID":"2021-024Q","OBJECT_NAME":"STARLINK-2279","BSTAR":"0.00123310000000","MEAN_MOTION":"15.06397884","CENTER_NAME":"EARTH"},{"MEAN_ELEMENT_THEORY":"SGP4","RA_OF_ASC_NODE":"249.7152","REV_AT_EPOCH":"11873","MEAN_MOTION_DOT":"0.00020639","OBJECT_TYPE":"PAYLOAD","APOAPSIS":"547.820","ELEMENT_SET_NO":"999","OBJECT_ID":"2021-024R","OBJECT_NAME":"STARLINK-2229","BSTAR":"0.00139890000000","CENTER_NAME":"EARTH","MEAN_MOTION":"15.06440877","LAUNCH_DATE":"2021-03-24","SEMIMAJOR_AXIS":"6925.223","TLE_LINE1":"1 47992U 21024R   23123.73765418  .00020639  00000-0  13989-2 0  9994","ARG_OF_PERICENTER":"90.2271","REF_FRAME":"TEME","COUNTRY_CODE":"US","MEAN_ANOMALY":"269.8839","EPHEMERIS_TYPE":"0","TIME_SYSTEM":"UTC","ECCENTRICITY":"0.00010560","NORAD_CAT_ID":"47992","INCLINATION":"53.0543","CLASSIFICATION_TYPE":"U","DECAY_DATE":null,"EPOCH":"2023-05-03T17:42:13.321152","RCS_SIZE":"LARGE","SITE":"AFETR","GP_ID":"231197896","FILE":"3900281","PERIOD":"95.590","MEAN_MOTION_DDOT":"0.0000000000000","PERIAPSIS":"546.357","TLE_LINE2":"2 47992  53.0543 249.7152 0001056  90.2271 269.8839 15.06440877118733"},{"EPHEMERIS_TYPE":"0","MEAN_ANOMALY":"289.8147","COUNTRY_CODE":"US","TIME_SYSTEM":"UTC","SEMIMAJOR_AXIS":"6925.210","LAUNCH_DATE":"2021-03-24","REF_FRAME":"TEME","ARG_OF_PERICENTER":"70.2939","TLE_LINE1":"1 47993U 21024S   23123.81135265  .00021029  00000-0  14247-2 0  9997","PERIAPSIS":"546.451","TLE_LINE2":"2 47993  53.0546 289.3009 0000901  70.2939 289.8147 15.06445117118236","INCLINATION":"53.0546","NORAD_CAT_ID":"47993","ECCENTRICITY":"0.00009010","MEAN_MOTION_DDOT":"0.0000000000000","GP_ID":"231197646","PERIOD":"95.589","FILE":"3900281","RCS_SIZE":"LARGE","SITE":"AFETR","CLASSIFICATION_TYPE":"U","DECAY_DATE":null,"EPOCH":"2023-05-03T19:28:20.868960","APOAPSIS":"547.699","ELEMENT_SET_NO":"999","MEAN_MOTION_DOT":"0.00021029","MEAN_ELEMENT_THEORY":"SGP4","RA_OF_ASC_NODE":"289.3009","REV_AT_EPOCH":"11823","OBJECT_TYPE":"PAYLOAD","MEAN_MOTION":"15.06445117","CENTER_NAME":"EARTH","BSTAR":"0.00142470000000","OBJECT_NAME":"STARLINK-2273","OBJECT_ID":"2021-024S"},{"TLE_LINE2":"2 47994  53.0529 303.9828 0000824  65.1022 295.0053 15.06437155117978","PERIAPSIS":"546.529","MEAN_MOTION_DDOT":"0.0000000000000","GP_ID":"231196896","FILE":"3900281","PERIOD":"95.590","RCS_SIZE":"LARGE","SITE":"AFETR","DECAY_DATE":null,"EPOCH":"2023-05-03T21:09:52.098336","CLASSIFICATION_TYPE":"U","INCLINATION":"53.0529","NORAD_CAT_ID":"47994","ECCENTRICITY":"0.00008240","TIME_SYSTEM":"UTC","MEAN_ANOMALY":"295.0053","EPHEMERIS_TYPE":"0","COUNTRY_CODE":"US","REF_FRAME":"TEME","ARG_OF_PERICENTER":"65.1022","TLE_LINE1":"1 47994U 21024T   23123.88185299  .00017772  00000-0  12078-2 0  9997","SEMIMAJOR_AXIS":"6925.235","LAUNCH_DATE":"2021-03-24","MEAN_MOTION":"15.06437155","CENTER_NAME":"EARTH","BSTAR":"0.00120780000000","OBJECT_NAME":"STARLINK-2290","OBJECT_ID":"2021-024T","ELEMENT_SET_NO":"999","APOAPSIS":"547.670","OBJECT_TYPE":"PAYLOAD","MEAN_MOTION_DOT":"0.00017772","REV_AT_EPOCH":"11797","RA_OF_ASC_NODE":"303.9828","MEAN_ELEMENT_THEORY":"SGP4"},{"ARG_OF_PERICENTER":"63.3096","TLE_LINE1":"1 47995U 21024U   23123.69160259  .00019076  00000-0  12948-2 0  9991","REF_FRAME":"TEME","LAUNCH_DATE":"2021-03-24","SEMIMAJOR_AXIS":"6925.237","TIME_SYSTEM":"UTC","COUNTRY_CODE":"US","MEAN_ANOMALY":"296.7995","EPHEMERIS_TYPE":"0","SITE":"AFETR","RCS_SIZE":"LARGE","DECAY_DATE":null,"CLASSIFICATION_TYPE":"U","EPOCH":"2023-05-03T16:35:54.463776","MEAN_MOTION_DDOT":"0.0000000000000","GP_ID":"231197146","PERIOD":"95.590","FILE":"3900281","ECCENTRICITY":"0.00010010","INCLINATION":"53.0531","NORAD_CAT_ID":"47995","TLE_LINE2":"2 47995  53.0531 270.1605 0001001  63.3096 296.7995 15.06436508118446","PERIAPSIS":"546.408","OBJECT_TYPE":"PAYLOAD","MEAN_MOTION_DOT":"0.00019076","MEAN_ELEMENT_THEORY":"SGP4","REV_AT_EPOCH":"11844","RA_OF_ASC_NODE":"270.1605","ELEMENT_SET_NO":"999","APOAPSIS":"547.795","OBJECT_ID":"2021-024U","OBJECT_NAME":"STARLINK-2309","BSTAR":"0.00129480000000","MEAN_MOTION":"15.06436508","CENTER_NAME":"EARTH"},{"BSTAR":"0.00072542000000","CENTER_NAME":"EARTH","MEAN_MOTION":"15.06443452","OBJECT_ID":"2021-024V","OBJECT_NAME":"STARLINK-2260","ELEMENT_SET_NO":"999","APOAPSIS":"547.882","OBJECT_TYPE":"PAYLOAD","REV_AT_EPOCH":"11899","RA_OF_ASC_NODE":"196.1453","MEAN_ELEMENT_THEORY":"SGP4","MEAN_MOTION_DOT":"0.00010553","TLE_LINE2":"2 47996  53.0534 196.1453 0001157  86.7109 273.4012 15.06443452118992","PERIAPSIS":"546.279","CLASSIFICATION_TYPE":"U","DECAY_DATE":null,"EPOCH":"2023-05-03T11:14:07.478304","SITE":"AFETR","RCS_SIZE":"LARGE","GP_ID":"231173363","PERIOD":"95.589","FILE":"3900182","MEAN_MOTION_DDOT":"0.0000000000000","ECCENTRICITY":"0.00011570","NORAD_CAT_ID":"47996","INCLINATION":"53.0534","TIME_SYSTEM":"UTC","COUNTRY_CODE":"US","EPHEMERIS_TYPE":"0","MEAN_ANOMALY":"273.4012","TLE_LINE1":"1 47996U 21024V   23123.46814211  .00010553  00000-0  72542-3 0  9999","ARG_OF_PERICENTER":"86.7109","REF_FRAME":"TEME","LAUNCH_DATE":"2021-03-24","SEMIMAJOR_AXIS":"6925.215"},{"TLE_LINE1":"1 47997U 21024W   23123.73073006  .00010557  00000-0  72613-3 0  9992","ARG_OF_PERICENTER":"83.4804","REF_FRAME":"TEME","LAUNCH_DATE":"2021-03-24","SEMIMAJOR_AXIS":"6925.279","TIME_SYSTEM":"UTC","COUNTRY_CODE":"US","EPHEMERIS_TYPE":"0","MEAN_ANOMALY":"276.6328","CLASSIFICATION_TYPE":"U","DECAY_DATE":null,"EPOCH":"2023-05-03T17:32:15.077184","RCS_SIZE":"LARGE","SITE":"AFETR","FILE":"3900281","GP_ID":"231198146","PERIOD":"95.591","MEAN_MOTION_DDOT":"0.0000000000000","ECCENTRICITY":"0.00012500","NORAD_CAT_ID":"47997","INCLINATION":"53.0539","TLE_LINE2":"2 47997  53.0539 304.6669 0001250  83.4804 276.6328 15.06422805118010","PERIAPSIS":"546.278","OBJECT_TYPE":"PAYLOAD","REV_AT_EPOCH":"11801","MEAN_ELEMENT_THEORY":"SGP4","RA_OF_ASC_NODE":"304.6669","MEAN_MOTION_DOT":"0.00010557","ELEMENT_SET_NO":"999","APOAPSIS":"548.009","OBJECT_ID":"2021-024W","OBJECT_NAME":"STARLINK-2266","BSTAR":"0.00072613000000","CENTER_NAME":"EARTH","MEAN_MOTION":"15.06422805"},{"LAUNCH_DATE":"2021-03-24","SEMIMAJOR_AXIS":"6925.209","TLE_LINE1":"1 47998U 21024X   23123.80493103  .00022345  00000-0  15124-2 0  9996","ARG_OF_PERICENTER":"64.5318","REF_FRAME":"TEME","COUNTRY_CODE":"US","EPHEMERIS_TYPE":"0","MEAN_ANOMALY":"295.5773","TIME_SYSTEM":"UTC","ECCENTRICITY":"0.00009860","NORAD_CAT_ID":"47998","INCLINATION":"53.0533","DECAY_DATE":null,"CLASSIFICATION_TYPE":"U","EPOCH":"2023-05-03T19:19:06.040992","SITE":"AFETR","RCS_SIZE":"LARGE","GP_ID":"231196397","PERIOD":"95.589","FILE":"3900281","MEAN_MOTION_DDOT":"0.0000000000000","PERIAPSIS":"546.391","TLE_LINE2":"2 47998  53.0533 279.5696 0000986  64.5318 295.5773 15.06445437118313","MEAN_ELEMENT_THEORY":"SGP4","REV_AT_EPOCH":"11831","RA_OF_ASC_NODE":"279.5696","MEAN_MOTION_DOT":"0.00022345","OBJECT_TYPE":"PAYLOAD","APOAPSIS":"547.757","ELEMENT_SET_NO":"999","OBJECT_ID":"2021-024X","OBJECT_NAME":"STARLINK-2296","BSTAR":"0.00151240000000","CENTER_NAME":"EARTH","MEAN_MOTION":"15.06445437"}];
